LIME                    
1 62648U 25009AR  26068.73906781  .00013254  00000+0  47723-3 0  9995
2 62648  97.3985 151.4831 0001635  35.9029 324.2320 15.28703313 63766
STARLINK-33714          
1 63581U 25076N   26068.10921183  .00036706  00000+0  13362-2 0  9998
2 63581  43.0030 324.8001 0001873 263.2654  96.7985 15.27592859 51744
