[{"OBJECT_NAME":"LIME","OBJECT_ID":"2025-009AR","EPOCH":"2026-03-09T17:44:15.459648","MEAN_MOTION":15.28703313,"ECCENTRICITY":0.00016347,"INCLINATION":97.3985,"RA_OF_ASC_NODE":151.4831,"ARG_OF_PERICENTER":35.9029,"MEAN_ANOMALY":324.232,"EPHEMERIS_TYPE":0,"CLASSIFICATION_TYPE":"U","NORAD_CAT_ID":62648,"ELEMENT_SET_NO":999,"REV_AT_EPOCH":6376,"BSTAR":0.00047722827,"MEAN_MOTION_DOT":0.00013254,"MEAN_MOTION_DDOT":0},{"OBJECT_NAME":"STARLINK-33714","OBJECT_ID":"2025-076N","EPOCH":"2026-03-09T02:37:15.902112","MEAN_MOTION":15.27592859,"ECCENTRICITY":0.00018731,"INCLINATION":43.003,"RA_OF_ASC_NODE":324.8001,"ARG_OF_PERICENTER":263.2654,"MEAN_ANOMALY":96.7985,"EPHEMERIS_TYPE":0,"CLASSIFICATION_TYPE":"U","NORAD_CAT_ID":63581,"ELEMENT_SET_NO":999,"REV_AT_EPOCH":5174,"BSTAR":0.0013362317,"MEAN_MOTION_DOT":0.00036706,"MEAN_MOTION_DDOT":0}]
